ONEWEB-0593             
1 54659U 22166T   24009.14559578  .00000077  00000+0  15584-3 0  9994
2 54659  87.9230  61.1562 0001546  93.5210 266.6101 13.21824439 54432
ONEWEB-0594             
1 54660U 22166U   24008.63465088  .00000084  00000+0  17079-3 0  9990
2 54660  87.9228  61.2531 0001948 104.9006 255.2344 13.21825262 53914
ONEWEB-0595             
1 54661U 22166V   24008.68826940  .00000028  00000+0  35594-4 0  9995
2 54661  87.9225  61.2337 0002121  95.4570 264.6806 13.21825533 53895
ONEWEB-0596             
1 54662U 22166W   24009.19133421  .00000433  00000+0  10163-2 0  9991
2 54662  87.9226  61.1357 0001565  88.4529 271.6784 13.21821899 54430
ONEWEB-0597             
1 54663U 22166X   24009.17240834  .00000113  00000+0  24091-3 0  9998
2 54663  87.9227  61.1408 0001448 103.0180 257.1116 13.21825676 54431
ONEWEB-0600             
1 54664U 22166Y   24008.70088047  .00000078  00000+0  15778-3 0  9995
2 54664  87.9220  61.2842 0001594 104.7445 255.3865 13.21826998 53878
ONEWEB-0601             
1 54665U 22166Z   24009.14717356  .00000075  00000+0  15088-3 0  9998
2 54665  87.9228  61.1472 0001287  93.8420 266.2861 13.21829255 54580
ONEWEB-0602             
1 54666U 22166AA  24009.18817594 -.00000007  00000+0 -47826-4 0  9991
2 54666  87.9228  61.1449 0001485 101.4273 258.7028 13.21825210 54440
